SPACEMOBILE-004         
1 61049U 24163E   26198.92178491  .00011552  00000+0  53167-3 0  9991
2 61049  52.9683 167.5779 0005787 225.7382 134.3138 15.20759542102447
CZ-8A R/B               
1 66004U 25231K   26199.21613258 -.00000055  00000+0  39119-4 0  9991
2 66004  50.0036 267.3063 0116551 333.2524  26.2411 14.30162663 39381
SZ-21 MODULE            
1 66515U 25246C   26199.16844885  .00032775  00000+0  17974-3 0  9997
2 66515  41.4718 113.9818 0008814 240.5202 119.4765 15.79019502 38639
SPACEMOBILE-006         
1 67232U 25309A   26199.23815390  .00001328  00000+0  78550-4 0  9999
2 67232  52.9934 189.3935 0009796 225.5162 134.5032 15.18662538 31317
SPACEMOBILE-008         
1 69589U 26139A   26199.19184720  .00000359  00000+0  37210-4 0  9990
2 69589  52.9950 121.8023 0005199  63.4511 296.7013 15.12804576  4674
SPACEMOBILE-009         
1 69590U 26139B   26199.06188045  .00000354  00000+0  36982-4 0  9992
2 69590  52.9941 122.4098 0005388  59.4835 300.6687 15.12697857  4651
SPACEMOBILE-010         
1 69591U 26139C   26199.13138269  .00001139  00000+0  81672-4 0  9992
2 69591  52.9947 122.1344 0005414  52.1260 308.0220 15.12535619  4675
